API VERSION: 1.2
API SOURCE: NASA/JPL Horizons API

*******************************************************************************
 Revised: January 26, 2022             Saturn                               699
 
 PHYSICAL DATA:
  Mass x10^26 (kg)      = 5.6834          Density (g/cm^3)       =  0.687+-.001
  Equat. radius (1 bar) = 60268+-4 km     Polar radius (km)      = 54364+-10
  Vol. Mean Radius (km) = 58232+-6        Flattening             =  0.09796
  Geometric Albedo      = 0.47            Rocky core mass (Mc/M) =  0.1027
  Sid. rot. period (III)= 10h 39m 22.4s   Sid. rot. rate (rad/s) =  0.000163785 
  Mean solar day, hrs   =~10.656         
  GM (km^3/s^2)         = 37931206.234    GM 1-sigma (km^3/s^2)  = +- 98
  Equ. grav, ge (m/s^2) = 10.44           Pol. grav, gp (m/s^2)  = 12.14+-0.01
  Vis. magnitude V(1,0) = -8.88          
  Vis. mag. (opposition)= +0.67           Obliquity to orbit     = 26.73 deg
  Sidereal orbit period = 29.447498 yr    Sidereal orbit period  = 10755.698 d
  Mean daily motion     = 0.0334979 deg/d Mean orbit velocity    =  9.68 km/s
  Atmos. temp. (1 bar)  = 134+-4 K        Escape speed, km/s    =  35.5          
  Aroche(ice)/Rp        =  2.71           Hill's sphere rad. Rp  = 1100
                                 Perihelion  Aphelion    Mean
  Solar Constant (W/m^2)         16.8        13.6        15.1
  Maximum Planetary IR (W/m^2)    4.7         4.5         4.6
  Minimum Planetary IR (W/m^2)    4.7         4.5         4.6
*******************************************************************************


*******************************************************************************
Ephemeris / API_USER Thu Feb 19 13:09:26 2026 Pasadena, USA      / Horizons
*******************************************************************************
Target body name: Saturn (699)                    {source: sat441l}
Center body name: Earth (399)                     {source: DE441}
Center-site name: BODY CENTER
*******************************************************************************
Start time      : A.D. 2049-Jul-18 04:51:00.0000 TDB
Stop  time      : A.D. 2049-Jul-21 04:51:00.0000 TDB
Step-size       : 60 minutes
*******************************************************************************
Center geodetic : 0.0, 0.0, 0.0                   {E-lon(deg),Lat(deg),Alt(km)}
Center cylindric: 0.0, 0.0, 0.0                   {E-lon(deg),Dxy(km),Dz(km)}
Center radii    : 6378.137, 6378.137, 6356.752 km {Equator_a, b, pole_c}
Output units    : AU-D
Calendar mode   : Mixed Julian/Gregorian
Output type     : GEOMETRIC cartesian states
Output format   : 3 (position, velocity, LT, range, range-rate)
EOP file        : eop.260218.p260517
EOP coverage    : DATA-BASED 1962-JAN-20 TO 2026-FEB-18. PREDICTS-> 2026-MAY-16
Reference frame : Ecliptic of J2000.0
*******************************************************************************
JDTDB
   X     Y     Z
   VX    VY    VZ
   LT    RG    RR
*******************************************************************************
$$SOE
2469641.660416667 = A.D. 2049-Jul-19 03:51:00.0000 TDB 
 X = 3.536392290102917E+00 Y =-8.265513082810557E+00 Z = 1.243403906415210E-04
 VX=-1.033903012485016E-02 VY=-5.329344493221272E-03 VZ=-2.293099767398994E-04
 LT= 5.192341210875574E-02 RG= 8.990260116763718E+00 RR= 8.327758709017124E-04
2469641.702083333 = A.D. 2049-Jul-19 04:51:00.0000 TDB 
 X = 3.535961604656576E+00 Y =-8.265735359142138E+00 Z = 1.147855900192045E-04
 VX=-1.033387009275465E-02 VY=-5.339918924604730E-03 VZ=-2.293204582194618E-04
 LT= 5.192361400252659E-02 RG= 8.990295073586509E+00 RR= 8.451516229103041E-04
2469641.743750000 = A.D. 2049-Jul-19 05:51:00.0000 TDB 
 X = 3.535531134362218E+00 Y =-8.265958076012799E+00 Z = 1.052303521089171E-04
 VX=-1.032870283435283E-02 VY=-5.350490370043940E-03 VZ=-2.293309646195361E-04
 LT= 5.192381887447954E-02 RG= 8.990330546065547E+00 RR= 8.575273694758041E-04
2469641.785416667 = A.D. 2049-Jul-19 06:51:00.0000 TDB 
 X = 3.535100879520385E+00 Y =-8.266181233298276E+00 Z = 9.567467612216088E-05
 VX=-1.032352837541221E-02 VY=-5.361058837288959E-03 VZ=-2.293414838298606E-04
 LT= 5.192402672461258E-02 RG= 8.990366534200486E+00 RR= 8.699031057086734E-04
2469641.827083333 = A.D. 2049-Jul-19 07:51:00.0000 TDB 
 X = 3.534670840430644E+00 Y =-8.266404830874700E+00 Z = 8.611856180075169E-05
 VX=-1.031834673717448E-02 VY=-5.371624337747305E-03 VZ=-2.293520022287861E-04
 LT= 5.192423755292318E-02 RG= 8.990403037990880E+00 RR= 8.822788318690488E-04
2469641.868750000 = A.D. 2049-Jul-19 08:51:00.0000 TDB 
 X = 3.534241017391768E+00 Y =-8.266628868618742E+00 Z = 7.656200948256023E-05
 VX=-1.031315793620526E-02 VY=-5.382186885423632E-03 VZ=-2.293625052940061E-04
 LT= 5.192445135940937E-02 RG= 8.990440057436395E+00 RR= 8.946545524499468E-04
2469641.910416667 = A.D. 2049-Jul-19 09:51:00.0000 TDB 
 X = 3.533811410701940E+00 Y =-8.266853346407693E+00 Z = 6.700502011346511E-05
 VX=-1.030796198451394E-02 VY=-5.392746495988863E-03 VZ=-2.293729781155959E-04
 LT= 5.192466814407069E-02 RG= 8.990477592536950E+00 RR= 9.070302752731323E-04
2469641.952083333 = A.D. 2049-Jul-19 10:51:00.0000 TDB 
 X = 3.533382020658931E+00 Y =-8.267078264119514E+00 Z = 5.744759526647760E-05
 VX=-1.030275888984031E-02 VY=-5.403303186037820E-03 VZ=-2.293834057869424E-04
 LT= 5.192488790690888E-02 RG= 8.990515643292843E+00 RR= 9.194060106926997E-04
2469641.993750000 = A.D. 2049-Jul-19 11:51:00.0000 TDB 
 X = 3.532952847560273E+00 Y =-8.267303621632870E+00 Z = 4.788973712819495E-05
 VX=-1.029754865600744E-02 VY=-5.413856972556291E-03 VZ=-2.293937736700860E-04
 LT= 5.192511064792842E-02 RG= 8.990554209704850E+00 RR= 9.317817709652093E-04
2469642.035416667 = A.D. 2049-Jul-19 12:51:00.0000 TDB 
 X = 3.532523891703414E+00 Y =-8.267529418827134E+00 Z = 3.833144848764424E-05
 VX=-1.029233128326057E-02 VY=-5.424407872578145E-03 VZ=-2.294040675527887E-04
 LT= 5.192533636713688E-02 RG= 8.990593291774289E+00 RR= 9.441575698000998E-04
2469642.077083333 = A.D. 2049-Jul-19 13:51:00.0000 TDB 
 X = 3.532095153385860E+00 Y =-8.267755655582393E+00 Z = 2.877273271715764E-05
 VX=-1.028710676854482E-02 VY=-5.434955902976015E-03 VZ=-2.294142737326062E-04
 LT= 5.192556506454536E-02 RG= 8.990632889503075E+00 RR= 9.565334220570710E-04
2469642.118750000 = A.D. 2049-Jul-19 14:51:00.0000 TDB 
 X = 3.531666632905313E+00 Y =-8.267982331779425E+00 Z = 1.921359374527904E-05
 VX=-1.028187510571576E-02 VY=-5.445501080300856E-03 VZ=-2.294243790755982E-04
 LT= 5.192579674016859E-02 RG= 8.990673002893757E+00 RR= 9.689093435148311E-04
2469642.160416667 = A.D. 2049-Jul-19 15:51:00.0000 TDB 
 X = 3.531238330559788E+00 Y =-8.268209447299682E+00 Z = 9.654036034850188E-06
 VX=-1.027663628571918E-02 VY=-5.456043420573555E-03 VZ=-2.294343711006987E-04
 LT= 5.192603139402516E-02 RG= 8.990713631949557E+00 RR= 9.812853506078847E-04
2469642.202083333 = A.D. 2049-Jul-19 16:51:00.0000 TDB 
 X = 3.530810246647737E+00 Y =-8.268437002025280E+00 Z = 9.406455591736338E-08
 VX=-1.027139029681092E-02 VY=-5.466582938943319E-03 VZ=-2.294442381317098E-04
 LT= 5.192626902613769E-02 RG= 8.990754776674397E+00 RR= 9.936614600251456E-04
2469642.243750000 = A.D. 2049-Jul-19 17:51:00.0000 TDB 
 X = 3.530382381468150E+00 Y =-8.268664995838929E+00 Z =-9.466315257697808E-06
 VX=-1.026613712490284E-02 VY=-5.477119649171394E-03 VZ=-2.294539695333350E-04
 LT= 5.192650963653282E-02 RG= 8.990796437072877E+00 RR= 1.006037688098344E-03
2469642.285416667 = A.D. 2049-Jul-19 18:51:00.0000 TDB 
 X = 3.529954735320646E+00 Y =-8.268893428623873E+00 Z =-1.902709755740553E-05
 VX=-1.026087675410558E-02 VY=-5.487653562984641E-03 VZ=-2.294635560015134E-04
 LT= 5.192675322524091E-02 RG= 8.990838613150263E+00 RR= 1.018414049993580E-03
2469642.327083333 = A.D. 2049-Jul-19 19:51:00.0000 TDB 
 X = 3.529527308505528E+00 Y =-8.269122300263799E+00 Z =-2.858827613642523E-05
 VX=-1.025560916747622E-02 VY=-5.498184689481533E-03 VZ=-2.294729898068070E-04
 LT= 5.192699979229585E-02 RG= 8.990881304912419E+00 RR= 1.030790558870721E-03
2469642.368750000 = A.D. 2049-Jul-19 20:51:00.0000 TDB 
 X = 3.529100101323814E+00 Y =-8.269351610642705E+00 Z =-3.814984450190185E-05
 VX=-1.025033434785471E-02 VY=-5.508713034975003E-03 VZ=-2.294822647879272E-04
 LT= 5.192724933773428E-02 RG= 8.990924512365691E+00 RR= 1.043167225409934E-03
2469642.410416667 = A.D. 2049-Jul-19 21:51:00.0000 TDB 
 X = 3.528673114077232E+00 Y =-8.269581359644816E+00 Z =-4.771179592470991E-05
 VX=-1.024505227846711E-02 VY=-5.519238603934220E-03 VZ=-2.294913757552865E-04
 LT= 5.192750186159528E-02 RG= 8.990968235516847E+00 RR= 1.055544058440782E-03
2469642.452083333 = A.D. 2049-Jul-19 22:51:00.0000 TDB 
 X = 3.528246347068198E+00 Y =-8.269811547154546E+00 Z =-5.727412345578920E-05
 VX=-1.023976294266690E-02 VY=-5.529761402053870E-03 VZ=-2.295003167861963E-04
 LT= 5.192775736392002E-02 RG= 8.991012474373012E+00 RR= 1.067921067866708E-03
2469642.493750000 = A.D. 2049-Jul-19 23:51:00.0000 TDB 
 X = 3.527819800599854E+00 Y =-8.270042173056684E+00 Z =-6.683681982653669E-05
 VX=-1.023446632175547E-02 VY=-5.540281442948975E-03 VZ=-2.295090776679751E-04
 LT= 5.192801584475282E-02 RG= 8.991057228941861E+00 RR= 1.080298271678341E-03
2469642.535416667 = A.D. 2049-Jul-20 00:51:00.0000 TDB 
 X = 3.527393474976138E+00 Y =-8.270273237236468E+00 Z =-7.639987740298684E-05
 VX=-1.022916239773983E-02 VY=-5.550798728328387E-03 VZ=-2.295176546254467E-04
 LT= 5.192827730414180E-02 RG= 8.991102499231722E+00 RR= 1.092675676634973E-03
2469642.577083333 = A.D. 2049-Jul-20 01:51:00.0000 TDB 
 X = 3.526967370501796E+00 Y =-8.270504739579312E+00 Z =-8.596328834239546E-05
 VX=-1.022385114795878E-02 VY=-5.561313270784605E-03 VZ=-2.295260381155200E-04
 LT= 5.192854174213735E-02 RG= 8.991148285251329E+00 RR= 1.105053301334439E-03
